start=new Date('2021-09-10T00:00:00.000Z').valueOf();
sats=[{"NORAD_CAT_ID":"47363","SITE":"AFETR","EPHEMERIS_TYPE":"0","DECAY_DATE":null,"CLASSIFICATION_TYPE":"U","REV_AT_EPOCH":"3550","RCS_SIZE":"LARGE","EPOCH":"2021-09-09T08:27:12.569184","COUNTRY_CODE":"US","INCLINATION":"53.0529","MEAN_MOTION":"15.06401360","RA_OF_ASC_NODE":"234.3655","TIME_SYSTEM":"UTC","OBJECT_ID":"2021-005Q","FILE":"3111654","GP_ID":"184380519","MEAN_ANOMALY":"292.8292","APOAPSIS":"548.065","ECCENTRICITY":"0.00012360","MEAN_MOTION_DOT":"-0.00000810","MEAN_ELEMENT_THEORY":"SGP4","OBJECT_TYPE":"PAYLOAD","ARG_OF_PERICENTER":"67.2828","ELEMENT_SET_NO":"999","PERIAPSIS":"546.353","SEMIMAJOR_AXIS":"6925.344","PERIOD":"95.592","TLE_LINE2":"2 47363  53.0529 234.3655 0001236  67.2828 292.8292 15.06401360 35505","MEAN_MOTION_DDOT":"0.0000000000000","LAUNCH_DATE":"2021-01-20","REF_FRAME":"TEME","BSTAR":"-0.00003551300000","CENTER_NAME":"EARTH","OBJECT_NAME":"STARLINK-2077","TLE_LINE1":"1 47363U 21005Q   21252.35222881 -.00000810  00000-0 -35513-4 0  9996"},{"CLASSIFICATION_TYPE":"U","REV_AT_EPOCH":"3551","EPHEMERIS_TYPE":"0","DECAY_DATE":null,"SITE":"AFETR","NORAD_CAT_ID":"47364","INCLINATION":"53.0537","EPOCH":"2021-09-09T10:50:31.085952","COUNTRY_CODE":"US","RCS_SIZE":"LARGE","OBJECT_ID":"2021-005R","TIME_SYSTEM":"UTC","RA_OF_ASC_NODE":"233.8990","MEAN_MOTION":"15.06392291","ECCENTRICITY":"0.00016330","MEAN_ANOMALY":"301.5209","APOAPSIS":"548.368","GP_ID":"184381271","FILE":"3111654","ELEMENT_SET_NO":"999","ARG_OF_PERICENTER":"58.5940","MEAN_MOTION_DOT":"-0.00000701","MEAN_ELEMENT_THEORY":"SGP4","OBJECT_TYPE":"PAYLOAD","TLE_LINE2":"2 47364  53.0537 233.8990 0001633  58.5940 301.5209 15.06392291 35519","PERIOD":"95.593","SEMIMAJOR_AXIS":"6925.372","PERIAPSIS":"546.106","LAUNCH_DATE":"2021-01-20","MEAN_MOTION_DDOT":"0.0000000000000","TLE_LINE1":"1 47364U 21005R   21252.45174868 -.00000701  00000-0 -28174-4 0  9993","OBJECT_NAME":"STARLINK-2079","CENTER_NAME":"EARTH","BSTAR":"-0.00002817400000","REF_FRAME":"TEME"},{"MEAN_MOTION_DOT":"0.00017462","MEAN_ELEMENT_THEORY":"SGP4","OBJECT_TYPE":"PAYLOAD","ARG_OF_PERICENTER":"13.8340","ELEMENT_SET_NO":"999","PERIAPSIS":"348.056","SEMIMAJOR_AXIS":"6727.799","PERIOD":"91.531","TLE_LINE2":"2 47365  53.0507 152.9169 0002391  13.8340 346.2743 15.73233663 36629","MEAN_MOTION_DDOT":"0.0000000000000","LAUNCH_DATE":"2021-01-20","REF_FRAME":"TEME","BSTAR":"0.00012837000000","CENTER_NAME":"EARTH","OBJECT_NAME":"STARLINK-2080","TLE_LINE1":"1 47365U 21005S   21252.10271788  .00017462  00000-0  12837-3 0  9993","NORAD_CAT_ID":"47365","SITE":"AFETR","EPHEMERIS_TYPE":"0","DECAY_DATE":null,"CLASSIFICATION_TYPE":"U","REV_AT_EPOCH":"3662","RCS_SIZE":"LARGE","EPOCH":"2021-09-09T02:27:54.824832","COUNTRY_CODE":"US","INCLINATION":"53.0507","MEAN_MOTION":"15.73233663","RA_OF_ASC_NODE":"152.9169","TIME_SYSTEM":"UTC","OBJECT_ID":"2021-005S","FILE":"3111654","GP_ID":"184382020","MEAN_ANOMALY":"346.2743","APOAPSIS":"351.273","ECCENTRICITY":"0.00023910"},{"BSTAR":"0.00008570100000","REF_FRAME":"TEME","TLE_LINE1":"1 47366U 21005T   21252.44437217  .00000995  00000-0  85701-4 0  9996","CENTER_NAME":"EARTH","OBJECT_NAME":"STARLINK-2081","MEAN_MOTION_DDOT":"0.0000000000000","LAUNCH_DATE":"2021-01-20","PERIAPSIS":"546.430","TLE_LINE2":"2 47366  53.0551 233.9355 0001159  55.7013 304.4086 15.06393688 35512","SEMIMAJOR_AXIS":"6925.368","PERIOD":"95.593","ARG_OF_PERICENTER":"55.7013","MEAN_ELEMENT_THEORY":"SGP4","MEAN_MOTION_DOT":"0.00000995","OBJECT_TYPE":"PAYLOAD","ELEMENT_SET_NO":"999","GP_ID":"184380768","FILE":"3111654","ECCENTRICITY":"0.00011590","APOAPSIS":"548.036","MEAN_ANOMALY":"304.4086","MEAN_MOTION":"15.06393688","RA_OF_ASC_NODE":"233.9355","TIME_SYSTEM":"UTC","OBJECT_ID":"2021-005T","EPOCH":"2021-09-09T10:39:53.755488","COUNTRY_CODE":"US","RCS_SIZE":"LARGE","INCLINATION":"53.0551","SITE":"AFETR","NORAD_CAT_ID":"47366","REV_AT_EPOCH":"3551","CLASSIFICATION_TYPE":"U","EPHEMERIS_TYPE":"0","DECAY_DATE":null},{"REV_AT_EPOCH":"3550","CLASSIFICATION_TYPE":"U","EPHEMERIS_TYPE":"0","DECAY_DATE":null,"SITE":"AFETR","NORAD_CAT_ID":"47367","INCLINATION":"53.0537","EPOCH":"2021-09-09T08:05:57.553152","COUNTRY_CODE":"US","RCS_SIZE":"LARGE","OBJECT_ID":"2021-005U","TIME_SYSTEM":"UTC","MEAN_MOTION":"15.06403972","RA_OF_ASC_NODE":"234.4371","ECCENTRICITY":"0.00014560","MEAN_ANOMALY":"303.0999","APOAPSIS":"548.210","GP_ID":"184381018","FILE":"3111654","ELEMENT_SET_NO":"999","ARG_OF_PERICENTER":"57.0130","MEAN_ELEMENT_THEORY":"SGP4","MEAN_MOTION_DOT":"0.00001118","OBJECT_TYPE":"PAYLOAD","TLE_LINE2":"2 47367  53.0537 234.4371 0001456  57.0130 303.0999 15.06403972 35501","PERIOD":"95.592","SEMIMAJOR_AXIS":"6925.336","PERIAPSIS":"546.193","LAUNCH_DATE":"2021-01-20","MEAN_MOTION_DDOT":"0.0000000000000","TLE_LINE1":"1 47367U 21005U   21252.33747168  .00001118  00000-0  93933-4 0  9998","CENTER_NAME":"EARTH","OBJECT_NAME":"STARLINK-2082","BSTAR":"0.00009393300000","REF_FRAME":"TEME"},{"GP_ID":"184381770","FILE":"3111654","ECCENTRICITY":"0.00013690","APOAPSIS":"548.179","MEAN_ANOMALY":"281.0330","RA_OF_ASC_NODE":"233.8702","MEAN_MOTION":"15.06394420","TIME_SYSTEM":"UTC","OBJECT_ID":"2021-005V","EPOCH":"2021-09-09T11:06:26.405568","COUNTRY_CODE":"US","RCS_SIZE":"LARGE","INCLINATION":"53.0530","SITE":"AFETR","NORAD_CAT_ID":"47368","REV_AT_EPOCH":"3552","CLASSIFICATION_TYPE":"U","EPHEMERIS_TYPE":"0","DECAY_DATE":null,"BSTAR":"-0.00003437900000","REF_FRAME":"TEME","TLE_LINE1":"1 47368U 21005V   21252.46280562 -.00000793  00000-0 -34379-4 0  9992","OBJECT_NAME":"STARLINK-2084","CENTER_NAME":"EARTH","MEAN_MOTION_DDOT":"0.0000000000000","LAUNCH_DATE":"2021-01-20","PERIAPSIS":"546.283","TLE_LINE2":"2 47368  53.0530 233.8702 0001369  79.0813 281.0330 15.06394420 35524","SEMIMAJOR_AXIS":"6925.366","PERIOD":"95.592","ARG_OF_PERICENTER":"79.0813","MEAN_MOTION_DOT":"-0.00000793","MEAN_ELEMENT_THEORY":"SGP4","OBJECT_TYPE":"PAYLOAD","ELEMENT_SET_NO":"999"},{"PERIAPSIS":"546.257","PERIOD":"95.592","SEMIMAJOR_AXIS":"6925.347","TLE_LINE2":"2 47369  53.0562 212.0488 0001378  61.2578 298.8549 15.06400575 35865","MEAN_MOTION_DOT":"-0.00000133","MEAN_ELEMENT_THEORY":"SGP4","OBJECT_TYPE":"PAYLOAD","ARG_OF_PERICENTER":"61.2578","ELEMENT_SET_NO":"999","REF_FRAME":"TEME","BSTAR":"0.00000993500000","OBJECT_NAME":"STARLINK-2085","CENTER_NAME":"EARTH","TLE_LINE1":"1 47369U 21005W   21252.86641538 -.00000133  00000-0  99350-5 0  9999","MEAN_MOTION_DDOT":"0.0000000000000","LAUNCH_DATE":"2021-01-20","RCS_SIZE":"LARGE","EPOCH":"2021-09-09T20:47:38.288832","COUNTRY_CODE":"US","INCLINATION":"53.0562","NORAD_CAT_ID":"47369","SITE":"AFETR","EPHEMERIS_TYPE":"0","DECAY_DATE":null,"CLASSIFICATION_TYPE":"U","REV_AT_EPOCH":"3586","FILE":"3111873","GP_ID":"184409443","APOAPSIS":"548.166","MEAN_ANOMALY":"298.8549","ECCENTRICITY":"0.00013780","RA_OF_ASC_NODE":"212.0488","MEAN_MOTION":"15.06400575","TIME_SYSTEM":"UTC","OBJECT_ID":"2021-005W"},{"FILE":"3111654","GP_ID":"184380270","MEAN_ANOMALY":"303.1882","APOAPSIS":"548.486","ECCENTRICITY":"0.00018290","MEAN_MOTION":"15.06398272","RA_OF_ASC_NODE":"194.2484","OBJECT_ID":"2021-005X","TIME_SYSTEM":"UTC","RCS_SIZE":"LARGE","EPOCH":"2021-09-09T08:37:49.241280","COUNTRY_CODE":"US","INCLINATION":"53.0718","NORAD_CAT_ID":"47370","SITE":"AFETR","EPHEMERIS_TYPE":"0","DECAY_DATE":null,"CLASSIFICATION_TYPE":"U","REV_AT_EPOCH":"3607","REF_FRAME":"TEME","BSTAR":"0.00009622300000","CENTER_NAME":"EARTH","OBJECT_NAME":"STARLINK-2086","TLE_LINE1":"1 47370U 21005X   21252.35959770  .00001152  00000-0  96223-4 0  9991","MEAN_MOTION_DDOT":"0.0000000000000","LAUNCH_DATE":"2021-01-20","PERIAPSIS":"545.952","SEMIMAJOR_AXIS":"6925.354","PERIOD":"95.592","TLE_LINE2":"2 47370  53.0718 194.2484 0001829  56.9283 303.1882 15.06398272 36076","MEAN_ELEMENT_THEORY":"SGP4","MEAN_MOTION_DOT":"0.00001152","OBJECT_TYPE":"PAYLOAD","ARG_OF_PERICENTER":"56.9283","ELEMENT_SET_NO":"999"},{"ELEMENT_SET_NO":"999","MEAN_MOTION_DOT":"0.00000958","MEAN_ELEMENT_THEORY":"SGP4","OBJECT_TYPE":"PAYLOAD","ARG_OF_PERICENTER":"53.2001","PERIOD":"95.592","SEMIMAJOR_AXIS":"6925.360","TLE_LINE2":"2 47371  53.0535 233.7980 0001255  53.2001 306.9103 15.06396414 35527","PERIAPSIS":"546.355","LAUNCH_DATE":"2021-01-20","MEAN_MOTION_DDOT":"0.0000000000000","OBJECT_NAME":"STARLINK-2088","CENTER_NAME":"EARTH","TLE_LINE1":"1 47371U 21005Y   21252.47755017  .00000958  00000-0  83176-4 0  9999","REF_FRAME":"TEME","BSTAR":"0.00008317600000","EPHEMERIS_TYPE":"0","DECAY_DATE":null,"CLASSIFICATION_TYPE":"U","REV_AT_EPOCH":"3552","NORAD_CAT_ID":"47371","SITE":"AFETR","INCLINATION":"53.0535","RCS_SIZE":"LARGE","EPOCH":"2021-09-09T11:27:40.334688","COUNTRY_CODE":"US","OBJECT_ID":"2021-005Y","TIME_SYSTEM":"UTC","MEAN_MOTION":"15.06396414","RA_OF_ASC_NODE":"233.7980","APOAPSIS":"548.094","MEAN_ANOMALY":"306.9103","ECCENTRICITY":"0.00012550","FILE":"3111654","GP_ID":"184380520"},{"RA_OF_ASC_NODE":"226.8580","MEAN_MOTION":"15.06396175","OBJECT_ID":"2021-005Z","TIME_SYSTEM":"UTC","GP_ID":"184408192","FILE":"3111873","ECCENTRICITY":"0.00015570","APOAPSIS":"548.304","MEAN_ANOMALY":"290.1097","SITE":"AFETR","NORAD_CAT_ID":"47372","CLASSIFICATION_TYPE":"U","REV_AT_EPOCH":"3565","EPHEMERIS_TYPE":"0","DECAY_DATE":null,"EPOCH":"2021-09-09T21:45:19.471104","COUNTRY_CODE":"US","RCS_SIZE":"LARGE","INCLINATION":"53.0540","MEAN_MOTION_DDOT":"0.0000000000000","LAUNCH_DATE":"2021-01-20","BSTAR":"0.00011113000000","REF_FRAME":"TEME","TLE_LINE1":"1 47372U 21005Z   21252.90647536  .00001374  00000-0  11113-3 0  9998","OBJECT_NAME":"STARLINK-2089","CENTER_NAME":"EARTH","ARG_OF_PERICENTER":"70.0059","MEAN_ELEMENT_THEORY":"SGP4","MEAN_MOTION_DOT":"0.00001374","OBJECT_TYPE":"PAYLOAD","ELEMENT_SET_NO":"999","PERIAPSIS":"546.147","TLE_LINE2":"2 47372  53.0540 226.8580 0001557  70.0059 290.1097 15.06396175 35652","PERIOD":"95.592","SEMIMAJOR_AXIS":"6925.360"}];
